#dP2020  2 22  0  0  0.00000000      96 __u+U ITR00 FIT  IAC
## 2093 518400.00000000   900.00000000 58901 0.0000000000000
+  113   C01C02C03C04C05C06C07C08C09C10C11C12C13C14C16C19C20
+        C21C22C23C24C25C26C27C28C29C30C32C33C34C35C36C37E01
+        E02E03E04E05E07E08E09E11E12E13E14E15E18E19E21E24E25
+        E26E27E30E31E33E36G01G02G03G04G05G06G07G08G09G10G12
+        G13G14G15G16G17G18G19G20G21G22G23G24G25G26G27G28G29
+        G30G31G32J01J02J03R01R02R03R04R05R07R08R09R11R12R13
+        R14R15R16R17R18R19R20R21R22R23R26  0  0  0  0  0  0
++         0  0  0  0 13  8  9  9  8  8  8  8  8  7  8  8  8
++         7  8  8  8  8  8  8  8  8  8  8  8  8  9  8  8  5
++         5  4  5  5  5  4  5  5  5  4  5  4  4  5  5  5  5
++         4  5  4  5  5  5  3  4  3  3  4  3  4  3  3  3  3
++         4  4  4  4  3  4  3  3  3  3  3  3  3  3  3  3  3
++         3  4  3  9  9  8  6  5  5  6  6  5  5  6  6  5  6
++         6  5  6  5  5  6  6  6  5  5  8  0  0  0  0  0  0
%c M  cc GPS ccc cccc cccc cccc cccc ccccc ccccc ccccc ccccc
%c cc cc ccc ccc cccc cccc cccc cccc ccccc ccccc ccccc ccccc
%f  0.0000000  0.000000000  0.00000000000  0.000000000000000
%f  0.0000000  0.000000000  0.00000000000  0.000000000000000
%i    0    0    0    0      0      0      0      0         0
%i    0    0    0    0      0      0      0      0         0
/* INFORMATION & ANALYSIS CENTER (IAC)            RAPID DATA
/* S/V CLOCKS ARE ALIGNED TO GNSS TIME                      
/* G:C1WC2W R:C1PC2P E:C1XC5X C:C2IC6I J:C1CC2S             
/* PCV:IGS14_2091 OL/AL:FES2004  NONE     YN ORB:CoN CLK:CoN
*  2020 02 22 14 45  0.00000000
PC01      0.000000      0.000000      0.000000 999999.999999
PC02   4562.150478  41938.683935    275.266455 999999.999999
PC03 -14806.225256  39448.656308    841.355923 999999.999999
PC04      0.000000      0.000000      0.000000 999999.999999
PC05  21802.515596  36077.220792     37.375196   -384.649066
PC06 -21657.431567  23464.342879 -27362.823304    243.754191
PC07 -16298.458272  38097.790962  -5999.901512    -91.198659
PC08  -5478.139861  24829.821957  33808.806200   -127.540726
PC09  -7031.312310  24735.681891 -33233.289695    352.156770
PC10  -6679.881620  40945.901363   6332.041298   -686.016925
PC11 -12626.820479  12479.250985  21581.837660   -197.943867
PC12 -26507.502534   2051.990639   8482.576128    322.129873
PC13   6211.359978  32774.400995  26039.823277    282.031015
PC14 -15448.023344  23091.529243  -2273.932486    175.852939
PC16 -17830.750407  24132.784241 -29669.692533   -764.621976
PC19   8606.826974 -24172.460901  11012.056322    332.373431
PC20  19559.322753 -18974.721084  -6058.356159   -751.459762
PC21 -19221.167709   2202.727144  20122.718894   -101.409195
PC22  -7511.789161 -15450.583268  22001.425726   -896.535216
PC23  13707.112532  23709.613206   5372.711900   -898.685577
PC24 -12274.886995  11689.340831 -22183.430525   -934.877018
PC25   1979.813204  25284.082480 -11671.942136   -524.808972
PC26 -18382.726632  -7311.549553 -19674.895583    580.735584
PC27  27537.305202   4415.529290    514.073942    282.845144
PC28  17351.143508  14186.536831  16635.567488    273.784234
PC29   2325.217939 -15730.629042 -22933.520118    191.163591
PC30  21467.817472  -8549.790883 -15624.889277    275.817008
PC32  19221.840139  -2388.003677 -20076.284652   -876.671185
PC33  -8545.606815  24210.068273 -10911.525902   -939.708135
PC34 -21229.191551   8730.693566  15887.819553   -491.143129
PC35 -17725.119750 -13673.477974 -16680.601222   -903.300042
PC36  -1210.694297 -25233.775968  11872.623306   -827.495368
PC37  18260.975560   8436.622689  19362.707222   -874.498970
PE01  -3538.209160 -28581.835230  -6818.082305   -800.202040
PE02   3579.377439  28576.302999   6878.519581    114.520404
PE03   1568.054214  18004.808384 -23442.408599   -269.125385
PE04 -20257.381969  -5877.858373  20770.428587   -471.014992
PE05 -18269.549107  19717.311488 -12394.827061   -403.206050
PE07  27287.863874  -9899.669110  -5810.537590   -344.549867
PE08  20386.357236   5468.819449 -20756.673488   6216.688729
PE09 -27189.549559  10159.150098   5772.086228   6148.016478
PE11 -23810.146858   -874.634643  17579.476964   1386.132075
PE12 -25209.754728 -15532.546474   -265.626119   5938.694276
PE13  23889.145230   1024.925032 -17429.307866    398.594099
PE14  -2150.665380 -20580.548148 -25194.721529   -914.743837
PE15  25322.603824  15321.008745    101.641246    876.398625
PE18   5140.296791  14187.288277  17908.359287  -1012.283283
PE19    777.525871 -18663.763268  22962.854031     -1.422846
PE21   8689.590796 -25710.372766  11803.411724   -584.093829
PE24 -16119.071152   7560.204155 -23666.335429   5596.752048
PE25  -8751.870265  25654.568724 -11900.024996   -504.664765
PE26   8295.882509 -14158.563542 -24622.664331   3499.833392
PE27  16013.555720  -7704.639348  23669.688188    276.949222
PE30  13789.048512  15018.990667  21453.903089   4122.908878
PE31 -13899.953359 -14730.288940 -21581.023676   -471.790849
PE33 -11918.508601 -20629.095252 -17558.480200   -470.136530
PE36  -8444.521615  13884.319173  24752.695896    595.010283
PG01 -20799.040575 -12624.975871  10830.669111   -303.239739
PG02  11605.256413  21779.514626  10564.497556   -409.434607
PG03 -15097.425190  -2161.185100  21681.202114   -100.611788
PG04 -25242.181642  -1419.586632   8191.115467    -52.473418
PG05   4473.106089  21650.851065 -14709.593410     -7.999757
PG06    992.519228  19423.531977  18126.625661   -214.686048
PG07 -16130.513155   3721.476864 -20577.160343   -220.201489
PG08 -18910.161088  -7758.787238 -17065.760386    -24.668848
PG09 -25540.103875   7092.621839  -1908.171799   -161.305578
PG10  11506.597964 -23172.501364  -5351.205625   -253.905419
PG12  13353.261621   6164.185469  21891.345333    148.438440
PG13  10953.266389  13227.082881 -20405.857983    -10.974496
PG14   4327.743229 -15593.640458  21362.469716    -30.826456
PG15  20249.466978   6492.793295 -16446.441708   -249.800758
PG16  -2002.050797 -21450.552911 -15430.131132   -127.292105
PG17 -15102.188121  13865.384580  17281.405157    220.364671
PG18 -19812.951342 -17512.789641   2431.935285      3.872007
PG19  -7552.706795  14582.626417  20581.938332   -195.219340
PG20  14633.870433 -15937.554031 -15349.934267    527.874725
PG21  14188.832161  -6650.034836 -20619.440865    -37.473733
PG22 -13001.048281 -11246.824194  20492.118843   -784.947396
PG23 -25690.050830    115.847028   7837.076940   -134.579735
PG24  21750.572893  12955.781758   8424.264851     -9.418477
PG25  16423.371282  -7502.044869  19151.729101    -12.168373
PG26   2998.285398 -25559.030506  -6106.867579    153.560131
PG27  -8055.172195 -13251.257551 -21728.808594   -218.532561
PG28 -12388.633467  23301.071896  -3010.958420    737.570398
PG29  26228.833284  -4164.405497   -835.064481    -39.385391
PG30  -7736.419911  14527.534267 -20782.724276   -159.207920
PG31  -2548.263250 -20672.002270  16170.079048    -24.893627
PG32  13767.696633 -15148.021499  16915.599579    218.901736
PJ01 -32773.227367  26526.560957   5798.213571   -325.883309
PJ02 -19896.705500  26530.322061 -21572.343452     -1.470817
PJ03 -29917.466077  24807.824827  21384.919167     -0.648990
PR01   9796.889073 -18662.563713  14377.598067     57.479710
PR02  -8184.756736  -7299.942964  23069.648152    413.224860
PR03 -18919.332238   7028.450521  15669.812202     10.407688
PR04 -18742.519028  17296.426973   -542.690277     39.613542
PR05  -8093.811529  17696.128217 -16496.320043     45.480132
PR07  19055.778119  -7450.290685 -15170.719826    -33.524148
PR08  18735.136783 -17289.574628    645.428182    -50.648671
PR09  11268.909075  17236.241727  15020.434849    118.170885
PR11   6011.945226 -15882.925988  19058.092324    -14.351599
PR12  -2739.275761 -24773.038964   5380.659734    107.945152
PR13 -10457.829061 -19758.060977 -12302.592082    -35.122388
PR14 -11695.006641  -3231.996769 -22431.685841     48.408805
PR15  -6317.647917  15054.545834 -19586.706540    105.985942
PR16   3411.950017  24871.109685  -4917.866851     -1.635378
PR17 -24277.544654  -5151.766265   5837.289518    303.168587
PR18 -15834.861123   4084.240808  19619.130423     26.017706
PR19    541.019909  11085.970477  22972.732380    -80.345321
PR20  18770.400139  12402.781972  11987.490833   -404.771137
PR21  24160.793195   4788.196670  -6667.347081   -106.601514
PR22  13287.783784  -5483.176569 -21024.968182    -15.017087
PR23  -7532.095182 -12447.523623 -20954.974361    288.045758
PR26  15916.103430  12630.842086  15451.684382   -405.892998
EOF
